STARLINK-35902          
1 66626U 25271K   25350.91670139 -.01941765  00000+0 -48275-1 0  9995
2 66626  53.1593 167.2555 0000946  87.1212 273.9079 15.43133315  4915
STARLINK-35904          
1 66627U 25271L   25350.91350156  .00072204  00000+0  12933-2 0  9993
2 66627  53.1592 167.2359 0000931  68.8960 291.2149 15.49331111  4817
STARLINK-35862          
1 66628U 25271M   25350.91315841  .00071244  00000+0  12764-2 0  9991
2 66628  53.1592 167.2335 0000868  72.2795 287.8309 15.49330775  4854
STARLINK-35956          
1 66629U 25271N   25350.91281333  .00055882  00000+0  10049-2 0  9994
2 66629  53.1587 167.2314 0000634  73.5778 286.5301 15.49330698  4854
STARLINK-35949          
1 66630U 25271P   25350.91247081  .00053479  00000+0  96233-3 0  9998
2 66630  53.1592 167.2275 0000976  70.1422 289.9692 15.49329786  4852
STARLINK-35965          
1 66631U 25271Q   25350.91212724  .00070333  00000+0  12603-2 0  9991
2 66631  53.1589 167.2266 0000910  47.4404 312.6682 15.49330766  4857
STARLINK-35973          
1 66632U 25271R   25350.91670139  .00065881  00000+0  16446-2 0  9991
2 66632  53.1585 167.3476 0001548  93.4654 221.0779 15.39586252  4856
STARLINK-35948          
1 66633U 25271S   25350.91670139  .00075865  00000+0  18896-2 0  9996
2 66633  53.1585 167.3429 0001101  83.2670 233.1028 15.39590055  4919
STARLINK-35967          
1 66634U 25271T   25350.91670139  .00070067  00000+0  17489-2 0  9993
2 66634  53.1596 167.2905 0000902  54.9893 287.1124 15.39562481  4840
STARLINK-35955          
1 66635U 25271U   25350.91670139 -.02034754  00000+0 -48543-1 0  9995
2 66635  53.1597 167.2077 0000791  90.0402 294.0687 15.44506384  4910
STARLINK-35968          
1 66636U 25271V   25350.91670139 -.01581442  00000+0 -42384-1 0  9993
2 66636  53.1593 167.2408 0000941 111.5050 255.7458 15.40759422  4919
STARLINK-35953          
1 66637U 25271W   25350.97495159 -.00347183  00000+0 -69103-2 0  9997
2 66637  53.1595 166.9051 0000506  38.6708 321.4336 15.47636222  4867
