CCSDS_OMM_VERS = 2.0
CREATION_DATE  = 
ORIGINATOR     = 

OBJECT_NAME    = STARLINK-35902
OBJECT_ID      = 2025-271K
CENTER_NAME    = EARTH
REF_FRAME      = TEME
TIME_SYSTEM    = UTC
MEAN_ELEMENT_THEORY = SGP/SGP4

EPOCH          = 2025-12-16T22:00:03.000096
MEAN_MOTION    = 15.43133315
ECCENTRICITY   = .00009463
INCLINATION    = 53.1593
RA_OF_ASC_NODE = 167.2555
ARG_OF_PERICENTER = 87.1212
MEAN_ANOMALY   = 273.9079

EPHEMERIS_TYPE = 0
CLASSIFICATION_TYPE = U
NORAD_CAT_ID   = 66626
ELEMENT_SET_NO = 999
REV_AT_EPOCH   = 491
BSTAR          = -.48274764E-1
MEAN_MOTION_DOT = -.1941765E-1
MEAN_MOTION_DDOT = 0

CCSDS_OMM_VERS = 2.0
CREATION_DATE  = 
ORIGINATOR     = 

OBJECT_NAME    = STARLINK-35904
OBJECT_ID      = 2025-271L
CENTER_NAME    = EARTH
REF_FRAME      = TEME
TIME_SYSTEM    = UTC
MEAN_ELEMENT_THEORY = SGP/SGP4

EPOCH          = 2025-12-16T21:55:26.534784
MEAN_MOTION    = 15.49331111
ECCENTRICITY   = .00009312
INCLINATION    = 53.1592
RA_OF_ASC_NODE = 167.2359
ARG_OF_PERICENTER = 68.8960
MEAN_ANOMALY   = 291.2149

EPHEMERIS_TYPE = 0
CLASSIFICATION_TYPE = U
NORAD_CAT_ID   = 66627
ELEMENT_SET_NO = 999
REV_AT_EPOCH   = 481
BSTAR          = .12933065E-2
MEAN_MOTION_DOT = .72204E-3
MEAN_MOTION_DDOT = 0

CCSDS_OMM_VERS = 2.0
CREATION_DATE  = 
ORIGINATOR     = 

OBJECT_NAME    = STARLINK-35862
OBJECT_ID      = 2025-271M
CENTER_NAME    = EARTH
REF_FRAME      = TEME
TIME_SYSTEM    = UTC
MEAN_ELEMENT_THEORY = SGP/SGP4

EPOCH          = 2025-12-16T21:54:56.886624
MEAN_MOTION    = 15.49330775
ECCENTRICITY   = .00008682
INCLINATION    = 53.1592
RA_OF_ASC_NODE = 167.2335
ARG_OF_PERICENTER = 72.2795
MEAN_ANOMALY   = 287.8309

EPHEMERIS_TYPE = 0
CLASSIFICATION_TYPE = U
NORAD_CAT_ID   = 66628
ELEMENT_SET_NO = 999
REV_AT_EPOCH   = 485
BSTAR          = .12763879E-2
MEAN_MOTION_DOT = .71244E-3
MEAN_MOTION_DDOT = 0

CCSDS_OMM_VERS = 2.0
CREATION_DATE  = 
ORIGINATOR     = 

OBJECT_NAME    = STARLINK-35956
OBJECT_ID      = 2025-271N
CENTER_NAME    = EARTH
REF_FRAME      = TEME
TIME_SYSTEM    = UTC
MEAN_ELEMENT_THEORY = SGP/SGP4

EPOCH          = 2025-12-16T21:54:27.071712
MEAN_MOTION    = 15.49330698
ECCENTRICITY   = .00006346
INCLINATION    = 53.1587
RA_OF_ASC_NODE = 167.2314
ARG_OF_PERICENTER = 73.5778
MEAN_ANOMALY   = 286.5301

EPHEMERIS_TYPE = 0
CLASSIFICATION_TYPE = U
NORAD_CAT_ID   = 66629
ELEMENT_SET_NO = 999
REV_AT_EPOCH   = 485
BSTAR          = .10048732E-2
MEAN_MOTION_DOT = .55882E-3
MEAN_MOTION_DDOT = 0

CCSDS_OMM_VERS = 2.0
CREATION_DATE  = 
ORIGINATOR     = 

OBJECT_NAME    = STARLINK-35949
OBJECT_ID      = 2025-271P
CENTER_NAME    = EARTH
REF_FRAME      = TEME
TIME_SYSTEM    = UTC
MEAN_ELEMENT_THEORY = SGP/SGP4

EPOCH          = 2025-12-16T21:53:57.477984
MEAN_MOTION    = 15.49329786
ECCENTRICITY   = .00009765
INCLINATION    = 53.1592
RA_OF_ASC_NODE = 167.2275
ARG_OF_PERICENTER = 70.1422
MEAN_ANOMALY   = 289.9692

EPHEMERIS_TYPE = 0
CLASSIFICATION_TYPE = U
NORAD_CAT_ID   = 66630
ELEMENT_SET_NO = 999
REV_AT_EPOCH   = 485
BSTAR          = .96233157E-3
MEAN_MOTION_DOT = .53479E-3
MEAN_MOTION_DDOT = 0

CCSDS_OMM_VERS = 2.0
CREATION_DATE  = 
ORIGINATOR     = 

OBJECT_NAME    = STARLINK-35965
OBJECT_ID      = 2025-271Q
CENTER_NAME    = EARTH
REF_FRAME      = TEME
TIME_SYSTEM    = UTC
MEAN_ELEMENT_THEORY = SGP/SGP4

EPOCH          = 2025-12-16T21:53:27.793536
MEAN_MOTION    = 15.49330766
ECCENTRICITY   = .00009106
INCLINATION    = 53.1589
RA_OF_ASC_NODE = 167.2266
ARG_OF_PERICENTER = 47.4404
MEAN_ANOMALY   = 312.6682

EPHEMERIS_TYPE = 0
CLASSIFICATION_TYPE = U
NORAD_CAT_ID   = 66631
ELEMENT_SET_NO = 999
REV_AT_EPOCH   = 485
BSTAR          = .12603273E-2
MEAN_MOTION_DOT = .70333E-3
MEAN_MOTION_DDOT = 0

CCSDS_OMM_VERS = 2.0
CREATION_DATE  = 
ORIGINATOR     = 

OBJECT_NAME    = STARLINK-35973
OBJECT_ID      = 2025-271R
CENTER_NAME    = EARTH
REF_FRAME      = TEME
TIME_SYSTEM    = UTC
MEAN_ELEMENT_THEORY = SGP/SGP4

EPOCH          = 2025-12-16T22:00:03.000096
MEAN_MOTION    = 15.39586252
ECCENTRICITY   = .00015483
INCLINATION    = 53.1585
RA_OF_ASC_NODE = 167.3476
ARG_OF_PERICENTER = 93.4654
MEAN_ANOMALY   = 221.0779

EPHEMERIS_TYPE = 0
CLASSIFICATION_TYPE = U
NORAD_CAT_ID   = 66632
ELEMENT_SET_NO = 999
REV_AT_EPOCH   = 485
BSTAR          = .16446237E-2
MEAN_MOTION_DOT = .65881E-3
MEAN_MOTION_DDOT = 0

CCSDS_OMM_VERS = 2.0
CREATION_DATE  = 
ORIGINATOR     = 

OBJECT_NAME    = STARLINK-35948
OBJECT_ID      = 2025-271S
CENTER_NAME    = EARTH
REF_FRAME      = TEME
TIME_SYSTEM    = UTC
MEAN_ELEMENT_THEORY = SGP/SGP4

EPOCH          = 2025-12-16T22:00:03.000096
MEAN_MOTION    = 15.39590055
ECCENTRICITY   = .00011011
INCLINATION    = 53.1585
RA_OF_ASC_NODE = 167.3429
ARG_OF_PERICENTER = 83.2670
MEAN_ANOMALY   = 233.1028

EPHEMERIS_TYPE = 0
CLASSIFICATION_TYPE = U
NORAD_CAT_ID   = 66633
ELEMENT_SET_NO = 999
REV_AT_EPOCH   = 491
BSTAR          = .18896428E-2
MEAN_MOTION_DOT = .75865E-3
MEAN_MOTION_DDOT = 0

CCSDS_OMM_VERS = 2.0
CREATION_DATE  = 
ORIGINATOR     = 

OBJECT_NAME    = STARLINK-35967
OBJECT_ID      = 2025-271T
CENTER_NAME    = EARTH
REF_FRAME      = TEME
TIME_SYSTEM    = UTC
MEAN_ELEMENT_THEORY = SGP/SGP4

EPOCH          = 2025-12-16T22:00:03.000096
MEAN_MOTION    = 15.39562481
ECCENTRICITY   = .00009021
INCLINATION    = 53.1596
RA_OF_ASC_NODE = 167.2905
ARG_OF_PERICENTER = 54.9893
MEAN_ANOMALY   = 287.1124

EPHEMERIS_TYPE = 0
CLASSIFICATION_TYPE = U
NORAD_CAT_ID   = 66634
ELEMENT_SET_NO = 999
REV_AT_EPOCH   = 484
BSTAR          = .17488924E-2
MEAN_MOTION_DOT = .70067E-3
MEAN_MOTION_DDOT = 0

CCSDS_OMM_VERS = 2.0
CREATION_DATE  = 
ORIGINATOR     = 

OBJECT_NAME    = STARLINK-35955
OBJECT_ID      = 2025-271U
CENTER_NAME    = EARTH
REF_FRAME      = TEME
TIME_SYSTEM    = UTC
MEAN_ELEMENT_THEORY = SGP/SGP4

EPOCH          = 2025-12-16T22:00:03.000096
MEAN_MOTION    = 15.44506384
ECCENTRICITY   = .0000791
INCLINATION    = 53.1597
RA_OF_ASC_NODE = 167.2077
ARG_OF_PERICENTER = 90.0402
MEAN_ANOMALY   = 294.0687

EPHEMERIS_TYPE = 0
CLASSIFICATION_TYPE = U
NORAD_CAT_ID   = 66635
ELEMENT_SET_NO = 999
REV_AT_EPOCH   = 491
BSTAR          = -.48542963E-1
MEAN_MOTION_DOT = -.2034754E-1
MEAN_MOTION_DDOT = 0

CCSDS_OMM_VERS = 2.0
CREATION_DATE  = 
ORIGINATOR     = 

OBJECT_NAME    = STARLINK-35968
OBJECT_ID      = 2025-271V
CENTER_NAME    = EARTH
REF_FRAME      = TEME
TIME_SYSTEM    = UTC
MEAN_ELEMENT_THEORY = SGP/SGP4

EPOCH          = 2025-12-16T22:00:03.000096
MEAN_MOTION    = 15.40759422
ECCENTRICITY   = .0000941
INCLINATION    = 53.1593
RA_OF_ASC_NODE = 167.2408
ARG_OF_PERICENTER = 111.5050
MEAN_ANOMALY   = 255.7458

EPHEMERIS_TYPE = 0
CLASSIFICATION_TYPE = U
NORAD_CAT_ID   = 66636
ELEMENT_SET_NO = 999
REV_AT_EPOCH   = 491
BSTAR          = -.42384455E-1
MEAN_MOTION_DOT = -.1581442E-1
MEAN_MOTION_DDOT = 0

CCSDS_OMM_VERS = 2.0
CREATION_DATE  = 
ORIGINATOR     = 

OBJECT_NAME    = STARLINK-35953
OBJECT_ID      = 2025-271W
CENTER_NAME    = EARTH
REF_FRAME      = TEME
TIME_SYSTEM    = UTC
MEAN_ELEMENT_THEORY = SGP/SGP4

EPOCH          = 2025-12-16T23:23:55.817376
MEAN_MOTION    = 15.47636222
ECCENTRICITY   = .00005065
INCLINATION    = 53.1595
RA_OF_ASC_NODE = 166.9051
ARG_OF_PERICENTER = 38.6708
MEAN_ANOMALY   = 321.4336

EPHEMERIS_TYPE = 0
CLASSIFICATION_TYPE = U
NORAD_CAT_ID   = 66637
ELEMENT_SET_NO = 999
REV_AT_EPOCH   = 486
BSTAR          = -.69103152E-2
MEAN_MOTION_DOT = -.347183E-2
MEAN_MOTION_DDOT = 0

